1 45546U 20025R   22365.07345324  .00019430  00000-0  13187-2 0  9998
2 45546  53.0520 294.7838 0001545  58.8768 301.2372 15.06427575148978
1 45546U 20025R   22365.53787069  .00013344  00000-0  91210-3 0  9997
2 45546  53.0512 292.6990 0001571  57.8303 302.2839 15.06437484149620
1 45546U 20025R   22365.80325567  .00013121  00000-0  89713-3 0  9996
2 45546  53.0521 291.5074 0002369  67.9455 292.1786 15.06439832149668
1 45546U 20025R   23001.06864436  .00009426  00000-0  65090-3 0  9990
2 45546  53.0526 290.3159 0001017  10.8254 349.2757 15.06396301149123
1 45546U 20025R   23001.20134053  .00005167  00000-0  36555-3 0  9993
2 45546  53.0523 289.7210 0001661  55.1491 304.9653 15.06394471149725
1 45546U 20025R   23001.20134053  .00005167  00000-0  36555-3 0  9993
2 45546  53.0523 289.7210 0001661  55.1491 304.9653 15.06394471149141
1 45546U 20025R   23002.13021199  .00010465  00000-0  72071-3 0  9992
2 45546  53.0521 285.5497 0001701  65.5063 294.6103 15.06385160149280
1 45546U 20025R   23002.19655942  .00011188  00000-0  76910-3 0  9996
2 45546  53.0522 285.2516 0001704  65.8182 294.2985 15.06385963149878
1 45546U 20025R   23003.45714740  .00007429  00000-0  51700-3 0  9991
2 45546  53.0533 279.5933 0001606  60.2715 299.8434 15.06407342150060
1 45546U 20025R   23003.45714740  .00007429  00000-0  51700-3 0  9991
2 45546  53.0533 279.5933 0001606  60.2715 299.8434 15.06407342149484
1 45546U 20025R   23003.98792386  .00001206  00000-0  99827-4 0  9991
2 45546  53.0536 277.2107 0001625  60.3168 299.7983 15.06397951149560
1 45546U 20025R   23004.45234878  .00003621  00000-0  26181-3 0  9996
2 45546  53.0537 275.1260 0001616  61.6091 298.5060 15.06405982150218
1 45546U 20025R   23005.11580883  .00005983  00000-0  42001-3 0  9992
2 45546  53.0533 272.1480 0001569  63.1521 296.9628 15.06417955149737
1 45546U 20025R   23005.44753924  .00006339  00000-0  44382-3 0  9996
2 45546  53.0535 270.6588 0001627  62.8057 297.3097 15.06420771150362
1 45546U 20025R   23006.44274674 -.00005278  00000-0 -33581-3 0  9999
2 45546  53.0525 266.1903 0001764  65.9405 294.1769 15.06388823149938
1 45546U 20025R   23006.84083078  .00001398  00000-0  11278-3 0  9995
2 45546  53.0520 264.4046 0001685  62.8733 297.2428 15.06392067150577
1 45546U 20025R   23007.10621847  .00008459  00000-0  58608-3 0  9990
2 45546  53.0517 263.2124 0001696  68.4138 291.7032 15.06399855150617
1 45546U 20025R   23007.10621847  .00008459  00000-0  58608-3 0  9990
2 45546  53.0517 263.2124 0001696  68.4138 291.7032 15.06399855150033
1 45546U 20025R   23007.76969081  .00001147  00000-0  95929-4 0  9992
2 45546  53.0524 260.2325 0001233  77.2172 282.8955 15.06389766150130
1 45546U 20025R   23007.83603924  .00000510  00000-0  53132-4 0  9994
2 45546  53.0519 259.9355 0001444  70.0197 290.0948 15.06388343150722
1 45546U 20025R   23008.10143017  .00002240  00000-0  16927-3 0  9999
2 45546  53.0515 258.7442 0001638  68.0318 292.0844 15.06388817150766
1 45546U 20025R   23009.09662796  .00007157  00000-0  49875-3 0  9998
2 45546  53.0513 254.2765 0001617  67.8382 292.2778 15.06410408150915
1 45546U 20025R   23009.09662796  .00007157  00000-0  49875-3 0  9998
2 45546  53.0513 254.2765 0001617  67.8382 292.2778 15.06410408150331
1 45546U 20025R   23009.69375915  .00001231  00000-0  10158-3 0  9997
2 45546  53.0514 251.5958 0002417  78.5831 281.5430 15.06389256151000
1 45546U 20025R   23009.69375915  .00001231  00000-0  10158-3 0  9997
2 45546  53.0514 251.5958 0002417  78.5831 281.5430 15.06389256150425
1 45546U 20025R   23010.35723659 -.00001598  00000-0 -88428-4 0  9998
2 45546  53.0517 248.6165 0002343  77.4301 282.6950 15.06381063150521
1 45546U 20025R   23010.48992461  .00001250  00000-0  10280-3 0  9994
2 45546  53.0504 248.0202 0001269  77.4418 282.6713 15.06392237151127
1 45546U 20025R   23010.75530551 -.00004358  00000-0 -27374-3 0  9998
2 45546  53.0510 246.8299 0001443  83.4304 276.6849 15.06410302151162
1 45546U 20025R   23010.75530551 -.00004358  00000-0 -27374-3 0  9998
2 45546  53.0510 246.8299 0001443  83.4304 276.6849 15.06410302150587
1 45546U 20025R   23011.41878232  .00004108  00000-0  29450-3 0  9991
2 45546  53.0502 243.8512 0001466  85.5279 274.5877 15.06397875151265
1 45546U 20025R   23011.41878232  .00004108  00000-0  29450-3 0  9991
2 45546  53.0502 243.8512 0001466  85.5279 274.5877 15.06397875150680
1 45546U 20025R   23012.61302533  .00001047  00000-0  89170-4 0  9995
2 45546  53.0508 238.4901 0001537  86.5186 273.5979 15.06399789150863
1 45546U 20025R   23012.87841178  .00001562  00000-0  12376-3 0  9991
2 45546  53.0504 237.2987 0001496  89.0398 271.0762 15.06400575151485
1 45546U 20025R   23013.34284252  .00001140  00000-0  95402-4 0  9992
2 45546  53.0507 235.2136 0001220  84.5951 275.5177 15.06397075151559
1 45546U 20025R   23013.60823345  .00000284  00000-0  37935-4 0  9998
2 45546  53.0504 234.0217 0001399  87.9682 272.1467 15.06392438151012
1 45546U 20025R   23013.87361856  .00002115  00000-0  16087-3 0  9990
2 45546  53.0507 232.8306 0001597  85.2567 274.8604 15.06399866151635
1 45546U 20025R   23014.00631036  .00001830  00000-0  14172-3 0  9992
2 45546  53.0501 232.2358 0001616  82.2478 277.8694 15.06403714151078
1 45546U 20025R   23015.00151691  .00001375  00000-0  11122-3 0  9993
2 45546  53.0501 227.7676 0001311  83.6723 276.4415 15.06396819151220
1 45546U 20025R   23015.59864151  .00000430  00000-0  47768-4 0  9996
2 45546  53.0501 225.0864 0001499  85.5572 274.5588 15.06394568151892
1 45546U 20025R   23015.86402785  .00002856  00000-0  21058-3 0  9994
2 45546  53.0516 223.8945 0001179  83.6854 276.4269 15.06398604151938
1 45546U 20025R   23016.26210826  .00001644  00000-0  12922-3 0  9996
2 45546  53.0514 222.1076 0001352  82.5098 277.6045 15.06399746151993
1 45546U 20025R   23016.26210826  .00001644  00000-0  12922-3 0  9996
2 45546  53.0514 222.1076 0001352  82.5098 277.6045 15.06399746151410
1 45546U 20025R   23016.85923349  .00000916  00000-0  80382-4 0  9999
2 45546  53.0524 219.4281 0001209  87.5666 272.5461 15.06395041152089
1 45546U 20025R   23017.25731329  .00000137  00000-0  28074-4 0  9994
2 45546  53.0531 217.6402 0001224  92.3709 267.7420 15.06396439151566
1 45546U 20025R   23017.58904793  .00001372  00000-0  11099-3 0  9997
2 45546  53.0530 216.1514 0001304  97.8006 262.3131 15.06399058152192
1 45546U 20025R   23017.65539399  .00001611  00000-0  12702-3 0  9999
2 45546  53.0531 215.8536 0001312  99.6680 260.4457 15.06400497152202
1 45546U 20025R   23018.51790420  .00002364  00000-0  17756-3 0  9999
2 45546  53.0521 211.9812 0001254  95.4829 264.6303 15.06399957151752
1 45546U 20025R   23018.58425145  .00002144  00000-0  16279-3 0  9990
2 45546  53.0521 211.6832 0001254  95.5468 264.5664 15.06399274152348
1 45546U 20025R   23018.84963569  .00002743  00000-0  20293-3 0  9992
2 45546  53.0520 210.4915 0001222  95.6077 264.5052 15.06404832152380
1 45546U 20025R   23019.24772278  .00003667  00000-0  26499-3 0  9992
2 45546  53.0512 208.7033 0001183  97.7800 262.3323 15.06393952151864
1 45546U 20025R   23019.51310870  .00002046  00000-0  15624-3 0  9996
2 45546  53.0514 207.5121 0001009  96.1702 263.9402 15.06395158152486
1 45546U 20025R   23020.24292083  .00001280  00000-0  10481-3 0  9998
2 45546  53.0522 204.2365 0001255  88.1321 271.9812 15.06402625152594
1 45546U 20025R   23020.64099810  .00002001  00000-0  15313-3 0  9996
2 45546  53.0533 202.4495 0001202  90.2191 269.8936 15.06405755152074
1 45546U 20025R   23021.70255302  .00001478  00000-0  11811-3 0  9990
2 45546  53.0522 197.6845 0001111  76.7087 283.4026 15.06397973152230
1 45546U 20025R   23022.76409791  .00000872  00000-0  77393-4 0  9995
2 45546  53.0543 192.9194 0001054  90.2789 269.8321 15.06402559152394
1 45546U 20025R   23023.42757070  .00000366  00000-0  43449-4 0  9998
2 45546  53.0525 189.9397 0001004  83.0114 277.0989 15.06394416152496
1 45546U 20025R   23024.48912200  .00001253  00000-0  10299-3 0  9995
2 45546  53.0535 185.1742 0001035  91.4549 268.6559 15.06396992152656
1 45546U 20025R   23025.41798304  .00000977  00000-0  84478-4 0  9999
2 45546  53.0551 181.0054 0001053  86.3236 273.7873 15.06390544153374
1 45546U 20025R   23025.41798304  .00000977  00000-0  84478-4 0  9999
2 45546  53.0551 181.0054 0001053  86.3236 273.7873 15.06390544152799
1 45546U 20025R   23025.68336962  .00000802  00000-0  72705-4 0  9993
2 45546  53.0549 179.8139 0001045  87.8808 272.2300 15.06393337153419
1 45546U 20025R   23026.14779436  .00001198  00000-0  99331-4 0  9995
2 45546  53.0553 177.7295 0001101  81.0001 279.1113 15.06398557152908
1 45546U 20025R   23026.61221869  .00001804  00000-0  13995-3 0  9994
2 45546  53.0552 175.6447 0001106  79.2380 280.8734 15.06403191153558
1 45546U 20025R   23026.67856338  .00001651  00000-0  12965-3 0  9991
2 45546  53.0551 175.3467 0001097  79.2644 280.8468 15.06407045152980
1 45546U 20025R   23027.40838576  .00001273  00000-0  10432-3 0  9994
2 45546  53.0542 172.0731 0001339  60.9809 299.1314 15.06397953153099
1 45546U 20025R   23027.60742662  .00001756  00000-0  13675-3 0  9994
2 45546  53.0549 171.1780 0001154  69.0907 291.0205 15.06395484153709
1 45546U 20025R   23027.67377187  .00001633  00000-0  12847-3 0  9991
2 45546  53.0545 170.8809 0001165  52.1242 307.9852 15.06398308153714
1 45546U 20025R   23028.40359497  .00002776  00000-0  20528-3 0  9991
2 45546  53.0560 167.6042 0001186  89.0921 271.0204 15.06382679153244
1 45546U 20025R   23028.53631168  .00019095  00000-0  13003-2 0  9994
2 45546  53.0555 167.0081 0000913 116.7117 243.3965 15.06314584153849
1 45546U 20025R   23028.80166694  .00000247  00000-0  35471-4 0  9995
2 45546  53.0549 165.8155 0001235  93.8624 266.2506 15.06400897153888
1 45546U 20025R   23028.80166694  .00000247  00000-0  35471-4 0  9995
2 45546  53.0549 165.8155 0001235  93.8624 266.2506 15.06400897153305
1 45546U 20025R   23029.06705990 -.00001100  00000-0 -54988-4 0  9997
2 45546  53.0542 164.6234 0001146  72.2056 287.9058 15.06396220153344
1 45546U 20025R   23029.59783605  .00000154  00000-0  29245-4 0  9998
2 45546  53.0558 162.2414 0001229 100.4794 259.6333 15.06393829154008
1 45546U 20025R   23030.32765443  .00000308  00000-0  39601-4 0  9999
2 45546  53.0548 158.9649 0001125  94.0954 266.0164 15.06392332154114
1 45546U 20025R   23030.32765443  .00000308  00000-0  39601-4 0  9999
2 45546  53.0548 158.9649 0001125  94.0954 266.0164 15.06392332153539
1 45546U 20025R   23031.05746540  .00000399  00000-0  45666-4 0  9995
2 45546  53.0549 155.6893 0001093  88.9187 271.1927 15.06399799153649
1 45546U 20025R   23031.52189646  .00002364  00000-0  17756-3 0  9997
2 45546  53.0562 153.6053 0001009  97.6464 262.4639 15.06391478154293
1 45546U 20025R   23031.72093251  .00001312  00000-0  10697-3 0  9994
2 45546  53.0551 152.7101 0001372  91.4033 268.7113 15.06401444154327
